{
  "type": "FeatureCollection",
  "features": [
    {
      "type": "Feature",
      "properties": { "name": "cn-rice-2022 field", "source": "drawn by Allen on mapdraw.net" },
      "geometry": {
        "type": "Polygon",
        "coordinates": [[
          [116.71982288360597, 28.801322379962905],
          [116.71875000000001, 28.800683067065854],
          [116.72394275665285, 28.792484471742636],
          [116.7272472381592, 28.79417689515362],
          [116.72291278839113, 28.80072067381543],
          [116.72209739685059, 28.800683067065854],
          [116.72115325927736, 28.801623231733885],
          [116.71982288360597, 28.801322379962905]
        ]]
      }
    }
  ]
}
